{
    "links": {
        "self": "http://www.neowsapp.com/rest/v1/neo/3599404?api_key=iIulBulltgU6a56xZRHN4H3l9WmuAYTsLGpBGhQ2"
    },
    "id": "3599404",
    "neo_reference_id": "3599404",
    "name": "(2012 DY)",
    "designation": "2012 DY",
    "nasa_jpl_url": "http://ssd.jpl.nasa.gov/sbdb.cgi?sstr=3599404",
    "absolute_magnitude_h": 26.6,
    "estimated_diameter": {
        "kilometers": {
            "estimated_diameter_min": 0.0127219879,
            "estimated_diameter_max": 0.0284472297
        },
        "meters": {
            "estimated_diameter_min": 12.7219878539,
            "estimated_diameter_max": 28.4472296503
        },
        "miles": {
            "estimated_diameter_min": 0.0079050743,
            "estimated_diameter_max": 0.0176762835
        },
        "feet": {
            "estimated_diameter_min": 41.7388066307,
            "estimated_diameter_max": 93.330808926
        }
    },
    "is_potentially_hazardous_asteroid": false,
    "close_approach_data": [
        {
            "close_approach_date": "2012-02-24",
            "close_approach_date_full": "2012-Feb-24 08:17",
            "epoch_date_close_approach": 1330071420000,
            "relative_velocity": {
                "kilometers_per_second": "9.3731546549",
                "kilometers_per_hour": "33743.3567577986",
                "miles_per_hour": "20966.8096476444"
            },
            "miss_distance": {
                "astronomical": "0.0236861711",
                "lunar": "9.2139205579",
                "kilometers": "3543400.745015557",
                "miles": "2201767.1256544066"
            },
            "orbiting_body": "Earth"
        }
    ],
    "orbital_data": {
        "orbit_id": "8",
        "orbit_determination_date": "2017-04-06 08:50:55",
        "first_observation_date": "2012-02-19",
        "last_observation_date": "2012-02-22",
        "data_arc_in_days": 3,
        "observations_used": 30,
        "orbit_uncertainty": "8",
        "minimum_orbit_intersection": ".0154961",
        "jupiter_tisserand_invariant": "3.518",
        "epoch_osculation": "2455978.5",
        "eccentricity": ".5425273466215121",
        "semi_major_axis": "2.125495350411073",
        "inclination": "4.990713463734252",
        "ascending_node_longitude": "150.1059055031531",
        "orbital_period": "1131.849454247257",
        "perihelion_distance": ".9723559976961921",
        "perihelion_argument": "31.06721476328542",
        "aphelion_distance": "3.278634703125953",
        "perihelion_time": "2456002.198646890660",
        "mean_anomaly": "352.4623254014718",
        "mean_motion": ".3180635009798365",
        "equinox": "J2000",
        "orbit_class": {
            "orbit_class_type": "APO",
            "orbit_class_description": "Near-Earth asteroid orbits which cross the Earth’s orbit similar to that of 1862 Apollo",
            "orbit_class_range": "a (semi-major axis) > 1.0 AU; q (perihelion) < 1.017 AU"
        }
    },
    "is_sentry_object": false
}